start=new Date('2021-09-05T00:00:00.000Z').valueOf();
sats=[{"INCLINATION":"53.0454","SITE":"AFETR","OBJECT_TYPE":"PAYLOAD","CLASSIFICATION_TYPE":"U","DECAY_DATE":null,"RCS_SIZE":"LARGE","APOAPSIS":"351.996","PERIOD":"91.530","OBJECT_NAME":"STARLINK-2270","SEMIMAJOR_AXIS":"6727.741","COUNTRY_CODE":"US","EPHEMERIS_TYPE":"0","MEAN_ANOMALY":"343.7260","NORAD_CAT_ID":"48000","ELEMENT_SET_NO":"999","MEAN_MOTION_DDOT":"0.0000000000000","GP_ID":"184078781","TLE_LINE1":"1 48000U 21024Z   21247.32726713  .00022720  00000-0  16543-3 0  9993","EPOCH":"2021-09-04T07:51:15.880032","MEAN_MOTION":"15.73254092","OBJECT_ID":"2021-024Z","FILE":"3108585","REV_AT_EPOCH":"2708","MEAN_ELEMENT_THEORY":"SGP4","RA_OF_ASC_NODE":"109.5851","TLE_LINE2":"2 48000  53.0454 109.5851 0003552  16.3872 343.7260 15.73254092 27086","BSTAR":"0.00016543000000","MEAN_MOTION_DOT":"0.00022720","ECCENTRICITY":"0.00035520","PERIAPSIS":"347.216","LAUNCH_DATE":"2021-03-24","REF_FRAME":"TEME","ARG_OF_PERICENTER":"16.3872","CENTER_NAME":"EARTH","TIME_SYSTEM":"UTC"},{"SITE":"AFETR","INCLINATION":"53.0453","OBJECT_TYPE":"PAYLOAD","RCS_SIZE":"LARGE","DECAY_DATE":null,"CLASSIFICATION_TYPE":"U","PERIOD":"91.531","APOAPSIS":"352.286","SEMIMAJOR_AXIS":"6727.790","OBJECT_NAME":"STARLINK-2262","COUNTRY_CODE":"US","EPHEMERIS_TYPE":"0","MEAN_ANOMALY":"352.7991","NORAD_CAT_ID":"48001","ELEMENT_SET_NO":"999","GP_ID":"184078031","MEAN_MOTION_DDOT":"0.0000000000000","TLE_LINE1":"1 48001U 21024AA  21247.32715423  .00025227  00000-0  18326-3 0  9996","OBJECT_ID":"2021-024AA","MEAN_MOTION":"15.73236818","EPOCH":"2021-09-04T07:51:06.125472","FILE":"3108585","TLE_LINE2":"2 48001  53.0453 109.5819 0003911   7.3083 352.7991 15.73236818 27136","RA_OF_ASC_NODE":"109.5819","MEAN_ELEMENT_THEORY":"SGP4","REV_AT_EPOCH":"2713","BSTAR":"0.00018326000000","MEAN_MOTION_DOT":"0.00025227","ECCENTRICITY":"0.00039110","PERIAPSIS":"347.024","LAUNCH_DATE":"2021-03-24","REF_FRAME":"TEME","CENTER_NAME":"EARTH","ARG_OF_PERICENTER":"7.3083","TIME_SYSTEM":"UTC"},{"ELEMENT_SET_NO":"999","MEAN_MOTION_DDOT":"0.0000000000000","GP_ID":"184077780","TLE_LINE1":"1 48002U 21024AB  21247.32703784  .00081066  00000-0  57361-3 0  9999","OBJECT_ID":"2021-024AB","MEAN_MOTION":"15.73299783","EPOCH":"2021-09-04T07:50:56.069376","FILE":"3108585","RA_OF_ASC_NODE":"109.5806","TLE_LINE2":"2 48002  53.0456 109.5806 0004840  13.3320 346.7825 15.73299783 27071","MEAN_ELEMENT_THEORY":"SGP4","REV_AT_EPOCH":"2707","BSTAR":"0.00057361000000","ECCENTRICITY":"0.00048400","MEAN_MOTION_DOT":"0.00081066","LAUNCH_DATE":"2021-03-24","PERIAPSIS":"346.220","REF_FRAME":"TEME","CENTER_NAME":"EARTH","ARG_OF_PERICENTER":"13.3320","TIME_SYSTEM":"UTC","SITE":"AFETR","INCLINATION":"53.0456","OBJECT_TYPE":"PAYLOAD","RCS_SIZE":"LARGE","DECAY_DATE":null,"CLASSIFICATION_TYPE":"U","PERIOD":"91.527","APOAPSIS":"352.732","SEMIMAJOR_AXIS":"6727.611","OBJECT_NAME":"STARLINK-2265","COUNTRY_CODE":"US","EPHEMERIS_TYPE":"0","MEAN_ANOMALY":"346.7825","NORAD_CAT_ID":"48002"},{"INCLINATION":"53.0509","SITE":"AFETR","OBJECT_TYPE":"PAYLOAD","CLASSIFICATION_TYPE":"U","RCS_SIZE":"LARGE","DECAY_DATE":null,"APOAPSIS":"553.602","PERIOD":"95.696","OBJECT_NAME":"STARLINK-2263","SEMIMAJOR_AXIS":"6930.354","COUNTRY_CODE":"US","EPHEMERIS_TYPE":"0","MEAN_ANOMALY":"300.5270","NORAD_CAT_ID":"48003","ELEMENT_SET_NO":"999","GP_ID":"184106235","MEAN_MOTION_DDOT":"0.0000000000000","TLE_LINE1":"1 48003U 21024AC  21247.48773744  .00001365  00000-0  11520-3 0  9991","MEAN_MOTION":"15.04768167","EPOCH":"2021-09-04T11:42:20.514816","OBJECT_ID":"2021-024AC","FILE":"3108751","REV_AT_EPOCH":"2622","MEAN_ELEMENT_THEORY":"SGP4","RA_OF_ASC_NODE":"171.1551","TLE_LINE2":"2 48003  53.0509 171.1551 0001995  59.5915 300.5270 15.04768167 26222","BSTAR":"0.00011520000000","ECCENTRICITY":"0.00019950","MEAN_MOTION_DOT":"0.00001365","LAUNCH_DATE":"2021-03-24","PERIAPSIS":"550.837","REF_FRAME":"TEME","ARG_OF_PERICENTER":"59.5915","CENTER_NAME":"EARTH","TIME_SYSTEM":"UTC"},{"MEAN_MOTION":"15.73241515","EPOCH":"2021-09-04T07:50:37.513248","OBJECT_ID":"2021-024AD","FILE":"3108713","MEAN_MOTION_DDOT":"0.0000000000000","GP_ID":"184082773","TLE_LINE1":"1 48004U 21024AD  21247.32682307  .00015081  00000-0  11145-3 0  9992","ELEMENT_SET_NO":"999","TIME_SYSTEM":"UTC","REF_FRAME":"TEME","ARG_OF_PERICENTER":"6.1177","CENTER_NAME":"EARTH","MEAN_MOTION_DOT":"0.00015081","ECCENTRICITY":"0.00038720","PERIAPSIS":"347.037","LAUNCH_DATE":"2021-03-24","REV_AT_EPOCH":"2660","MEAN_ELEMENT_THEORY":"SGP4","TLE_LINE2":"2 48004  53.0451 109.5804 0003872   6.1177 353.9888 15.73241515 26607","RA_OF_ASC_NODE":"109.5804","BSTAR":"0.00011145000000","CLASSIFICATION_TYPE":"U","DECAY_DATE":null,"RCS_SIZE":"LARGE","APOAPSIS":"352.247","PERIOD":"91.531","OBJECT_TYPE":"PAYLOAD","INCLINATION":"53.0451","SITE":"AFETR","NORAD_CAT_ID":"48004","MEAN_ANOMALY":"353.9888","OBJECT_NAME":"STARLINK-2261","SEMIMAJOR_AXIS":"6727.777","COUNTRY_CODE":"US","EPHEMERIS_TYPE":"0"},{"LAUNCH_DATE":"2021-03-24","PERIAPSIS":"545.368","MEAN_MOTION_DOT":"-0.00000282","ECCENTRICITY":"0.00026680","BSTAR":"0.00000002045500","REV_AT_EPOCH":"2663","MEAN_ELEMENT_THEORY":"SGP4","TLE_LINE2":"2 48005  53.0580 141.5673 0002668 322.0617  38.0184 15.06399162 26633","RA_OF_ASC_NODE":"141.5673","TIME_SYSTEM":"UTC","ARG_OF_PERICENTER":"322.0617","CENTER_NAME":"EARTH","REF_FRAME":"TEME","TLE_LINE1":"1 48005U 21024AE  21247.39970184 -.00000282  00000-0  20455-7 0  9999","MEAN_MOTION_DDOT":"0.0000000000000","GP_ID":"184104734","ELEMENT_SET_NO":"999","FILE":"3108751","EPOCH":"2021-09-04T09:35:34.238976","MEAN_MOTION":"15.06399162","OBJECT_ID":"2021-024AE","MEAN_ANOMALY":"38.0184","COUNTRY_CODE":"US","EPHEMERIS_TYPE":"0","OBJECT_NAME":"STARLINK-2254","SEMIMAJOR_AXIS":"6925.351","NORAD_CAT_ID":"48005","OBJECT_TYPE":"PAYLOAD","INCLINATION":"53.0580","SITE":"AFETR","APOAPSIS":"549.064","PERIOD":"95.592","CLASSIFICATION_TYPE":"U","DECAY_DATE":null,"RCS_SIZE":"LARGE"},{"LAUNCH_DATE":"2021-03-24","PERIAPSIS":"347.151","ECCENTRICITY":"0.00037140","MEAN_MOTION_DOT":"0.00031637","BSTAR":"0.00022852000000","REV_AT_EPOCH":"2713","MEAN_ELEMENT_THEORY":"SGP4","TLE_LINE2":"2 48006  53.0452 109.5789 0003714   7.1871 352.9200 15.73238576 27138","RA_OF_ASC_NODE":"109.5789","TIME_SYSTEM":"UTC","ARG_OF_PERICENTER":"7.1871","CENTER_NAME":"EARTH","REF_FRAME":"TEME","TLE_LINE1":"1 48006U 21024AF  21247.32659730  .00031637  00000-0  22852-3 0  9990","MEAN_MOTION_DDOT":"0.0000000000000","GP_ID":"184078281","ELEMENT_SET_NO":"999","FILE":"3108585","MEAN_MOTION":"15.73238576","EPOCH":"2021-09-04T07:50:18.006720","OBJECT_ID":"2021-024AF","MEAN_ANOMALY":"352.9200","EPHEMERIS_TYPE":"0","COUNTRY_CODE":"US","OBJECT_NAME":"STARLINK-2277","SEMIMAJOR_AXIS":"6727.785","NORAD_CAT_ID":"48006","OBJECT_TYPE":"PAYLOAD","INCLINATION":"53.0452","SITE":"AFETR","APOAPSIS":"352.149","PERIOD":"91.531","CLASSIFICATION_TYPE":"U","RCS_SIZE":"LARGE","DECAY_DATE":null},{"COUNTRY_CODE":"US","EPHEMERIS_TYPE":"0","SEMIMAJOR_AXIS":"6727.850","OBJECT_NAME":"STARLINK-2259","MEAN_ANOMALY":"345.6997","NORAD_CAT_ID":"48007","SITE":"AFETR","INCLINATION":"53.0457","OBJECT_TYPE":"PAYLOAD","PERIOD":"91.532","APOAPSIS":"352.006","DECAY_DATE":null,"RCS_SIZE":"LARGE","CLASSIFICATION_TYPE":"U","BSTAR":"0.00001165600000","TLE_LINE2":"2 48007  53.0457 107.6854 0003406  14.4117 345.6997 15.73215975 27194","RA_OF_ASC_NODE":"107.6854","MEAN_ELEMENT_THEORY":"SGP4","REV_AT_EPOCH":"2719","LAUNCH_DATE":"2021-03-24","PERIAPSIS":"347.423","ECCENTRICITY":"0.00034060","MEAN_MOTION_DOT":"0.00001013","CENTER_NAME":"EARTH","ARG_OF_PERICENTER":"14.4117","REF_FRAME":"TEME","TIME_SYSTEM":"UTC","ELEMENT_SET_NO":"999","TLE_LINE1":"1 48007U 21024AG  21247.70764702  .00001013  00000-0  11656-4 0  9995","GP_ID":"184105736","MEAN_MOTION_DDOT":"0.0000000000000","FILE":"3108751","OBJECT_ID":"2021-024AG","EPOCH":"2021-09-04T16:59:00.702528","MEAN_MOTION":"15.73215975"},{"APOAPSIS":"352.430","PERIOD":"91.530","CLASSIFICATION_TYPE":"U","DECAY_DATE":null,"RCS_SIZE":"LARGE","OBJECT_TYPE":"PAYLOAD","INCLINATION":"53.0444","SITE":"AFETR","NORAD_CAT_ID":"48008","MEAN_ANOMALY":"352.8266","EPHEMERIS_TYPE":"0","COUNTRY_CODE":"US","OBJECT_NAME":"STARLINK-2271","SEMIMAJOR_AXIS":"6727.724","FILE":"3108585","MEAN_MOTION":"15.73260092","EPOCH":"2021-09-04T00:12:34.690176","OBJECT_ID":"2021-024AH","TLE_LINE1":"1 48008U 21024AH  21247.00873484  .00029506  00000-0  21326-3 0  9998","GP_ID":"184078782","MEAN_MOTION_DDOT":"0.0000000000000","ELEMENT_SET_NO":"999","TIME_SYSTEM":"UTC","ARG_OF_PERICENTER":"7.2813","CENTER_NAME":"EARTH","REF_FRAME":"TEME","LAUNCH_DATE":"2021-03-24","PERIAPSIS":"346.748","MEAN_MOTION_DOT":"0.00029506","ECCENTRICITY":"0.00042230","BSTAR":"0.00021326000000","MEAN_ELEMENT_THEORY":"SGP4","REV_AT_EPOCH":"2703","RA_OF_ASC_NODE":"111.1516","TLE_LINE2":"2 48008  53.0444 111.1516 0004223   7.2813 352.8266 15.73260092 27039"},{"FILE":"3108585","OBJECT_ID":"2021-024AJ","MEAN_MOTION":"15.06399164","EPOCH":"2021-09-04T03:37:17.925888","TLE_LINE1":"1 48009U 21024AJ  21247.15090192  .00000853  00000-0  76162-4 0  9995","GP_ID":"184078032","MEAN_MOTION_DDOT":"0.0000000000000","ELEMENT_SET_NO":"999","TIME_SYSTEM":"UTC","CENTER_NAME":"EARTH","ARG_OF_PERICENTER":"63.4290","REF_FRAME":"TEME","PERIAPSIS":"545.863","LAUNCH_DATE":"2021-03-24","ECCENTRICITY":"0.00019540","MEAN_MOTION_DOT":"0.00000853","BSTAR":"0.00007616200000","RA_OF_ASC_NODE":"152.6949","TLE_LINE2":"2 48009  53.0544 152.6949 0001954  63.4290 296.6899 15.06399164 26464","MEAN_ELEMENT_THEORY":"SGP4","REV_AT_EPOCH":"2646","PERIOD":"95.592","APOAPSIS":"548.569","RCS_SIZE":"LARGE","DECAY_DATE":null,"CLASSIFICATION_TYPE":"U","OBJECT_TYPE":"PAYLOAD","SITE":"AFETR","INCLINATION":"53.0544","NORAD_CAT_ID":"48009","MEAN_ANOMALY":"296.6899","COUNTRY_CODE":"US","EPHEMERIS_TYPE":"0","SEMIMAJOR_AXIS":"6925.351","OBJECT_NAME":"STARLINK-2153"}];
